SL-16 R/B               
1 26070U 00006B   21358.55482433 -.00000009  00000+0  19797-4 0  9990
2 26070  71.0035  86.7618 0016947 351.2999   8.7827 14.15478142131165
MTI                     
1 26102U 00014A   21358.50957463  .00052888  00000+0  46500-3 0  9992
2 26102  97.4550 275.8865 0005083 350.2295   9.8817 15.68625778211053
TITAN 4B R/B            
1 26474U 00047B   21358.40361972  .00001365  00000+0  12691-3 0  9991
2 26474  67.9939 347.7797 0060133 304.2742  55.2715 14.96338653162256
ENVISAT                 
1 27386U 02009A   21358.54715462  .00000136  00000+0  58325-4 0  9996
2 27386  98.1655 343.0514 0001268  85.9658  21.6304 14.38063092 38395
IDEFIX & ARIANE 42P R/B 
1 27422U 02021B   21358.44583215  .00000139  00000+0  71009-4 0  9996
2 27422  98.4289 304.9154 0012914  36.6841 323.5223 14.29348775 24455
AQUA                    
1 27424U 02022A   21358.47387424  .00000453  00000+0  11057-3 0  9991
2 27424  98.2302 297.2384 0001803  72.6631  41.1510 14.57100197 44709
CZ-4B R/B               
1 27432U 02024C   21358.63491512 -.00000003  00000+0  22034-4 0  9994
2 27432  99.0764  16.1357 0051135  50.9177  57.6883 14.14120516 12119
MIDORI II (ADEOS-II)    
1 27597U 02056A   21358.46307083  .00000157  00000+0  81708-4 0  9993
2 27597  98.5879 300.1651 0001509 123.8939 236.2386 14.27540490990996
H-2A R/B                
1 27601U 02056E   21358.60775183  .00000049  00000+0  32218-4 0  9997
2 27601  98.1806  10.1823 0073151  63.3394  45.3440 14.32026387994143
CZ-4B R/B               
1 28059U 03049C   21358.56770891  .00000159  00000+0  50097-4 0  9991
2 28059  98.5072 287.7817 0048979 241.1588 118.4686 14.52695480963425
CZ-2C R/B               
1 28222U 04012C   21358.55774800  .00003355  00000+0  19848-3 0  9996
2 28222  97.7529 331.5793 0044686 292.0456 188.2851 15.11349514969803
SL-16 R/B               
1 28353U 04021B   21358.58170396  .00000157  00000+0  10709-3 0  9998
2 28353  70.9992 215.0497 0006594 226.6341 133.4233 14.14250084905625
CZ-4B R/B               
1 28415U 04035C   21358.57099343  .00001268  00000+0  85854-4 0  9991
2 28415  97.5416  37.6634 0049438 257.5366 102.0328 15.07365594947242
CZ-2C R/B               
1 28480U 04046B   21358.61239278  .00000059  00000+0  37342-4 0  9999
2 28480  98.0532 355.2918 0142269  20.7819  85.2182 14.25775715889527
ARIANE 5 R/B            
1 28499U 04049H   21358.59436623  .00000439  00000+0  61530-4 0  9990
2 28499  98.0838 108.9959 0090586 279.5065  90.1153 14.80204210918215
CZ-2D R/B               
1 28738U 05024B   21358.57169033  .00002674  00000+0  15569-3 0  9999
2 28738  97.3555   7.8454 0013263  67.2441 293.0190 15.12779497905304
SUZAKU (ASTRO-EII)      
1 28773U 05025A   21358.44032034  .00004153  00000+0  18817-3 0  9998
2 28773  31.3825   4.3077 0004168  37.4032 322.6906 15.19191702908371
ALOS (DAICHI)           
1 28931U 06002A   21358.50112135  .00000431  00000+0  92827-4 0  9997
2 28931  97.9117 325.1776 0001599 103.8996 256.2390 14.62945452848841
H-2A R/B                
1 28932U 06002B   21358.58431696  .00001849  00000+0  17255-3 0  9997
2 28932  98.3138  26.3986 0086720 305.6007 216.2082 14.92838411863948
AKARI (ASTRO-F)         
1 28939U 06005A   21358.60303165  .00013970  00000+0  31847-3 0  9990
2 28939  98.2218  45.0711 0081945 174.9428 185.2662 15.39513315866133
RESURS-DK 1             
1 29228U 06021A   21358.58614535  .00000661  00000+0  56581-4 0  9999
2 29228  69.9344 214.5117 0006781 305.7065  54.3464 15.02840791856102
GENESIS 1               
1 29252U 06029A   21358.57120098  .00003998  00000+0  19029-3 0  9990
2 29252  64.5230 284.6976 0058938 287.7399  71.7297 15.19236458852396
CZ-4B R/B               
1 29507U 06046C   21358.60039417  .00000937  00000+0  76001-4 0  9994
2 29507  97.7556  24.2894 0048264  94.8314 265.8423 15.01263569828631
CZ-2C R/B               
1 31114U 07010B   21358.45225464  .00000042  00000+0  37656-4 0  9995
2 31114  98.2278 178.8054 0060825  88.5503 272.2641 14.19384798761733
COSMO-SKYMED 1          
1 31598U 07023A   21358.54957741  .00000586  00000+0  80181-4 0  9999
2 31598  97.8807 179.7542 0001252  89.0537 271.0831 14.82160541787055
GENESIS 2               
1 31789U 07028A   21358.25916498  .00003799  00000+0  19279-3 0  9996
2 31789  64.4978 328.4680 0028148 351.4585   8.6054 15.18236923799292
COSMOS 2428             
1 31792U 07029A   21358.57000029  .00000293  00000+0  18453-3 0  9999
2 31792  70.9236 186.7045 0009966 303.4469  56.5698 14.12425231747159
SL-16 R/B               
1 31793U 07029B   21358.57067525  .00000370  00000+0  21804-3 0  9994
2 31793  70.9748 160.2459 0002051 258.3313 163.3757 14.14460330748131
KORONAS-FOTON           
1 33504U 09003A   21358.56542924  .00001896  00000+0  95758-4 0  9994
2 33504  82.4414  30.2339 0019516 153.3285 206.8956 15.16323359711585
H-2A R/B                
1 38341U 12025E   21358.56527532  .00000960  00000+0  11905-3 0  9996
2 38341  98.5186 197.0532 0054094 248.5266 111.0173 14.84362161519702
CUSAT 2 & FALCON 9 R/B  
1 39271U 13055G   21358.58891407  .00014883  00000+0  34311-3 0  9995
2 39271  80.9637  26.5273 0553460 291.6949  62.6198 14.56381361431272
CZ-2C R/B               
1 39364U 13059B   21358.59831722  .00005795  00000+0  20318-3 0  9991
2 39364  97.1879  52.9265 0044035 234.9940 124.7164 15.28897307453472
SL-4 R/B                
1 39679U 14021B   21358.55543793  .00001366  00000+0  82063-4 0  9990
2 39679  51.6161  49.6322 0168999  70.7773 291.1398 15.07474372422725
ALOS-2                  
1 39766U 14029A   21358.50633867 -.00000150  00000+0 -13218-4 0  9990
2 39766  97.9231  93.1520 0001475  90.6047 269.5332 14.79469709409769
CZ-2C R/B               
1 40306U 14071B   21358.59585762  .00020232  00000+0  33905-3 0  9993
2 40306  97.4007 320.7014 0011139 305.8787  54.1431 15.51808069399701
SL-27 R/B               
1 40354U 14084B   21358.52208635  .00004970  00000+0  11526-3 0  9990
2 40354  74.7391 318.5501 0037315 228.7350 131.0648 15.41895611393625
YAOGAN 29               
1 41038U 15069A   21358.45548912  .00000182  00000+0  30739-4 0  9990
2 41038  98.0489 352.9525 0000563  88.4426 271.6853 14.80553446328390
ASTRO-H (HITOMI)        
1 41337U 16012A   21358.55639554  .00001210  00000+0  90641-4 0  9996
2 41337  31.0055  89.4833 0012201 158.0020 202.1141 14.98991450320850
HXMT (HUIYAN)           
1 42758U 17034A   21358.39231737  .00001983  00000+0  13488-3 0  9992
2 42758  43.0173 230.3344 0009372 269.5694 259.3293 15.09527870249717
CZ-2C R/B               
1 43521U 18054D   21358.48549545  .00003845  00000+0  20418-3 0  9993
2 43521  35.1552 357.3151 0081161 335.6453  24.0438 15.12003750193175
AEOLUS                  
1 43600U 18066A   21358.56090401  .00078631  00000+0  31069-3 0  9994
2 43600  96.7132   2.3864 0007494 112.5184 247.6883 15.86550323193393
SAOCOM 1A               
1 43641U 18076A   21358.49039803  .00000186  00000+0  29940-4 0  9997
2 43641  97.8836 182.6925 0001452  77.4367 282.7024 14.82163335173811
SAOCOM 1B               
1 46265U 20059A   21358.52156532 -.00000339  00000+0 -36088-4 0  9992
2 46265  97.8834 181.7935 0001352  77.9853 282.1506 14.82154906 71213
2020-063G               
1 46395U 20063G   21358.52541886  .02748329  12272-4  24152-3 0  9996
2 46395  50.1932  10.8939 0002258 358.4236   1.9213 16.38389821 75688
SL-4 R/B                
1 47547U 21008B   21357.88676950  .00265231  52134-5  61955-3 0  9993
2 47547  67.1184 176.6840 0224746 144.6686 216.9620 15.65599926 49497
TIANHE                  
1 48274U 21035A   21358.53715571  .00013925  00000+0  16928-3 0  9997
2 48274  41.4683 202.8169 0005356 282.4272 167.7398 15.60279164 37469
